STARLINK-36879          
1 67982U 26038X   26065.58334491 -.01549786  74007-3 -30336-2 0  9997
2 67982  97.2717  75.6481 0001151  95.2912 203.3679 16.00278162  2694
STARLINK-36867          
1 67983U 26038Y   26065.58334491 -.01550155  74276-3 -29864-2 0  9992
2 67983  97.2716  75.6512 0001115  87.9453 217.0271 16.00558911  2690
STARLINK-36266          
1 67984U 26038Z   26065.58334491 -.01551529  74291-3 -30107-2 0  9998
2 67984  97.2717  75.6499 0001186  95.3540 206.7739 16.00431660  2666
STARLINK-36802          
1 67985U 26038AA  26065.58334491 -.01537568  73251-3 -29432-2 0  9990
2 67985  97.2713  75.6520 0001027  97.1130 210.4636 16.00670118  2691
STARLINK-36535          
1 67986U 26039A   26065.58334491 -.01489538  63492-3 -40410-2 0  9990
2 67986  42.9977  74.1600 0001740 272.4315 346.2778 15.93376699  2377
STARLINK-36744          
1 67987U 26039B   26065.58334491 -.01481447  62948-3 -39887-2 0  9993
2 67987  42.9976  74.1548 0001815 268.5506 352.1374 15.93518437  2375
STARLINK-36734          
1 67988U 26039C   26065.58334491 -.01471843  62291-3 -39318-2 0  9993
2 67988  42.9977  74.1488 0001779 272.3925 350.6841 15.93665262  2378
STARLINK-36957          
1 67989U 26039D   26065.58334491 -.01464986  61847-3 -38834-2 0  9992
2 67989  42.9975  74.1433 0001823 271.9027 353.1470 15.93809282  2373
STARLINK-36951          
1 67990U 26039E   26065.58334491 -.01469209  62269-3 -38633-2 0  9993
2 67990  42.9976  74.1375 0001880 268.7953 358.5823 15.93961204  2370
STARLINK-36941          
1 67991U 26039F   26065.58334491 -.01458608  61531-3 -38069-2 0  9999
2 67991  42.9976  74.1328 0001789 269.3382 359.8218 15.94099930  2371
STARLINK-36950          
1 67992U 26039G   26065.58334491 -.01451684  61083-3 -37597-2 0  9994
2 67992  42.9976  74.1273 0001800 269.9592   1.4348 15.94243610  2374
STARLINK-36975          
1 67993U 26039H   26065.58334491 -.01447151  60821-3 -37191-2 0  9998
2 67993  42.9975  74.1219 0001791 272.3822   1.1084 15.94387232  2370
STARLINK-36993          
1 67994U 26039J   26065.58334491 -.01442290  60533-3 -36782-2 0  9993
2 67994  42.9976  74.1164 0001813 271.0167   4.7762 15.94530203  2374
STARLINK-36968          
1 67995U 26039K   26065.58334491 -.01458513  61957-3 -36659-2 0  9993
2 67995  42.9976  74.1017 0001904 272.1630   9.4047 15.94802836  2372
STARLINK-36979          
1 67996U 26039L   26065.58334491 -.01463910  62289-3 -37081-2 0  9990
2 67996  42.9974  74.1069 0001866 269.6457   9.7814 15.94659826  2377
STARLINK-36994          
1 67997U 26039M   26065.58334491 -.01462988  62489-3 -36199-2 0  9996
2 67997  42.9976  74.0895 0001906 270.5153  15.7325 15.95094943  2373
